start=new Date('2022-05-25T00:00:00.000Z').valueOf();
sats=[{"EPOCH":"2022-05-24T22:00:00.999936","OBJECT_ID":"2021-082AV","EPHEMERIS_TYPE":"0","PERIAPSIS":"574.852","MEAN_MOTION_DDOT":"0.0000000000000","ECCENTRICITY":"0.00031780","REV_AT_EPOCH":"130","REF_FRAME":"TEME","FILE":"3462783","MEAN_MOTION_DOT":"0.00003619","ARG_OF_PERICENTER":"275.5330","SITE":"AFWTR","COUNTRY_CODE":"US","BSTAR":"0.00032402000000","TIME_SYSTEM":"UTC","MEAN_ANOMALY":"66.4307","CENTER_NAME":"EARTH","SEMIMAJOR_AXIS":"6955.197","NORAD_CAT_ID":"49173","APOAPSIS":"579.272","CLASSIFICATION_TYPE":"U","MEAN_ELEMENT_THEORY":"SGP4","PERIOD":"96.211","RCS_SIZE":"LARGE","DECAY_DATE":null,"INCLINATION":"70.0001","OBJECT_NAME":"STARLINK-3045","ELEMENT_SET_NO":"999","TLE_LINE2":"2 49173  70.0001 165.3652 0003178 275.5330  66.4307 14.96713234  1306","OBJECT_TYPE":"PAYLOAD","LAUNCH_DATE":"2021-09-14","TLE_LINE1":"1 49173U 21082AV  22144.91667824  .00003619  00000-0  32402-3 0  9996","MEAN_MOTION":"14.96713234","GP_ID":"204456400","RA_OF_ASC_NODE":"165.3652"},{"MEAN_MOTION_DOT":"0.00071687","ARG_OF_PERICENTER":"263.8095","FILE":"3462783","REF_FRAME":"TEME","REV_AT_EPOCH":"130","MEAN_MOTION_DDOT":"0.0000000000000","ECCENTRICITY":"0.00033120","PERIAPSIS":"574.892","EPOCH":"2022-05-24T22:00:00.999936","OBJECT_ID":"2021-082AW","EPHEMERIS_TYPE":"0","SEMIMAJOR_AXIS":"6955.330","MEAN_ANOMALY":"95.5625","CENTER_NAME":"EARTH","TIME_SYSTEM":"UTC","BSTAR":"0.00621420000000","COUNTRY_CODE":"US","SITE":"AFWTR","ELEMENT_SET_NO":"999","OBJECT_NAME":"STARLINK-3047","DECAY_DATE":null,"INCLINATION":"69.9998","PERIOD":"96.214","MEAN_ELEMENT_THEORY":"SGP4","RCS_SIZE":"LARGE","CLASSIFICATION_TYPE":"U","APOAPSIS":"579.499","NORAD_CAT_ID":"49174","GP_ID":"204457152","RA_OF_ASC_NODE":"165.3498","MEAN_MOTION":"14.96670227","TLE_LINE1":"1 49174U 21082AW  22144.91667824  .00071687  00000-0  62142-2 0  9990","LAUNCH_DATE":"2021-09-14","OBJECT_TYPE":"PAYLOAD","TLE_LINE2":"2 49174  69.9998 165.3498 0003312 263.8095  95.5625 14.96670227  1305"},{"REV_AT_EPOCH":"130","MEAN_MOTION_DDOT":"0.0000000000000","ECCENTRICITY":"0.00033230","PERIAPSIS":"574.796","EPOCH":"2022-05-24T22:00:00.999936","OBJECT_ID":"2021-082AX","EPHEMERIS_TYPE":"0","MEAN_MOTION_DOT":"0.00039197","ARG_OF_PERICENTER":"272.1132","FILE":"3462783","REF_FRAME":"TEME","COUNTRY_CODE":"US","SITE":"AFWTR","SEMIMAJOR_AXIS":"6955.243","MEAN_ANOMALY":"289.4090","CENTER_NAME":"EARTH","TIME_SYSTEM":"UTC","BSTAR":"0.00341480000000","CLASSIFICATION_TYPE":"U","APOAPSIS":"579.419","NORAD_CAT_ID":"49175","ELEMENT_SET_NO":"999","OBJECT_NAME":"STARLINK-3087","INCLINATION":"70.0007","DECAY_DATE":null,"PERIOD":"96.212","MEAN_ELEMENT_THEORY":"SGP4","RCS_SIZE":"LARGE","OBJECT_TYPE":"PAYLOAD","LAUNCH_DATE":"2021-09-14","TLE_LINE2":"2 49175  70.0007 165.3569 0003323 272.1132 289.4090 14.96698537  1300","GP_ID":"204457396","RA_OF_ASC_NODE":"165.3569","MEAN_MOTION":"14.96698537","TLE_LINE1":"1 49175U 21082AX  22144.91667824  .00039197  00000-0  34148-2 0  9996"},{"CENTER_NAME":"EARTH","MEAN_ANOMALY":"201.4819","SEMIMAJOR_AXIS":"6948.082","BSTAR":"-0.06382600000000","TIME_SYSTEM":"UTC","SITE":"AFWTR","COUNTRY_CODE":"US","FILE":"3462783","ARG_OF_PERICENTER":"284.6865","MEAN_MOTION_DOT":"-0.00727906","REF_FRAME":"TEME","ECCENTRICITY":"0.00032890","MEAN_MOTION_DDOT":"0.0000000000000","REV_AT_EPOCH":"130","EPHEMERIS_TYPE":"0","EPOCH":"2022-05-24T22:00:00.999936","OBJECT_ID":"2021-082AY","PERIAPSIS":"567.662","TLE_LINE1":"1 49176U 21082AY  22144.91667824 -.00727906  00000-0 -63826-1 0  9995","MEAN_MOTION":"14.99012798","RA_OF_ASC_NODE":"145.1230","GP_ID":"204455651","TLE_LINE2":"2 49176  70.0000 145.1230 0003289 284.6865 201.4819 14.99012798  1302","OBJECT_TYPE":"PAYLOAD","LAUNCH_DATE":"2021-09-14","OBJECT_NAME":"STARLINK-3069","ELEMENT_SET_NO":"999","RCS_SIZE":"LARGE","MEAN_ELEMENT_THEORY":"SGP4","PERIOD":"96.063","DECAY_DATE":null,"INCLINATION":"70.0000","CLASSIFICATION_TYPE":"U","NORAD_CAT_ID":"49176","APOAPSIS":"572.232"},{"BSTAR":"-0.06448700000000","TIME_SYSTEM":"UTC","MEAN_ANOMALY":"109.0964","CENTER_NAME":"EARTH","SEMIMAJOR_AXIS":"6949.759","SITE":"AFWTR","COUNTRY_CODE":"US","REF_FRAME":"TEME","FILE":"3462783","ARG_OF_PERICENTER":"274.3024","MEAN_MOTION_DOT":"-0.00725285","OBJECT_ID":"2021-082AZ","EPOCH":"2022-05-24T22:00:00.999936","EPHEMERIS_TYPE":"0","PERIAPSIS":"569.361","MEAN_MOTION_DDOT":"0.0000000000000","ECCENTRICITY":"0.00032560","REV_AT_EPOCH":"130","MEAN_MOTION":"14.98470228","TLE_LINE1":"1 49177U 21082AZ  22144.91667824 -.00725285  00000-0 -64487-1 0  9998","GP_ID":"204455901","RA_OF_ASC_NODE":"145.1275","TLE_LINE2":"2 49177  69.9998 145.1275 0003256 274.3024 109.0964 14.98470228  1301","LAUNCH_DATE":"2021-09-14","OBJECT_TYPE":"PAYLOAD","PERIOD":"96.098","MEAN_ELEMENT_THEORY":"SGP4","RCS_SIZE":"LARGE","DECAY_DATE":null,"INCLINATION":"69.9998","OBJECT_NAME":"STARLINK-3103","ELEMENT_SET_NO":"999","NORAD_CAT_ID":"49177","APOAPSIS":"573.887","CLASSIFICATION_TYPE":"U"},{"APOAPSIS":"574.334","NORAD_CAT_ID":"49178","CLASSIFICATION_TYPE":"U","INCLINATION":"70.0016","DECAY_DATE":null,"PERIOD":"96.108","MEAN_ELEMENT_THEORY":"SGP4","RCS_SIZE":"LARGE","ELEMENT_SET_NO":"999","OBJECT_NAME":"STARLINK-3086","LAUNCH_DATE":"2021-09-14","OBJECT_TYPE":"PAYLOAD","TLE_LINE2":"2 49178  70.0016 185.9490 0003194 273.7191 261.4565 14.98311855  1306","GP_ID":"204456653","RA_OF_ASC_NODE":"185.9490","TLE_LINE1":"1 49178U 21082BA  22144.91667824  .00048547  00000-0  40502-2 0  9999","MEAN_MOTION":"14.98311855","PERIAPSIS":"569.894","OBJECT_ID":"2021-082BA","EPOCH":"2022-05-24T22:00:00.999936","EPHEMERIS_TYPE":"0","REV_AT_EPOCH":"130","MEAN_MOTION_DDOT":"0.0000000000000","ECCENTRICITY":"0.00031940","REF_FRAME":"TEME","ARG_OF_PERICENTER":"273.7191","MEAN_MOTION_DOT":"0.00048547","FILE":"3462783","COUNTRY_CODE":"US","SITE":"AFWTR","TIME_SYSTEM":"UTC","BSTAR":"0.00405020000000","SEMIMAJOR_AXIS":"6950.249","MEAN_ANOMALY":"261.4565","CENTER_NAME":"EARTH"},{"OBJECT_TYPE":"PAYLOAD","LAUNCH_DATE":"2021-09-14","TLE_LINE2":"2 49179  69.9999 145.1186 0003261 281.1298 158.1410 14.97301181  1301","GP_ID":"204456897","RA_OF_ASC_NODE":"145.1186","TLE_LINE1":"1 49179U 21082BB  22144.91667824 -.00668623  00000-0 -61608-1 0  9994","MEAN_MOTION":"14.97301181","CLASSIFICATION_TYPE":"U","APOAPSIS":"577.509","NORAD_CAT_ID":"49179","ELEMENT_SET_NO":"999","OBJECT_NAME":"STARLINK-3043","DECAY_DATE":null,"INCLINATION":"69.9999","MEAN_ELEMENT_THEORY":"SGP4","PERIOD":"96.173","RCS_SIZE":"LARGE","COUNTRY_CODE":"US","SITE":"AFWTR","SEMIMAJOR_AXIS":"6953.376","MEAN_ANOMALY":"158.1410","CENTER_NAME":"EARTH","TIME_SYSTEM":"UTC","BSTAR":"-0.06160800000000","REV_AT_EPOCH":"130","MEAN_MOTION_DDOT":"0.0000000000000","ECCENTRICITY":"0.00032610","PERIAPSIS":"572.974","OBJECT_ID":"2021-082BB","EPOCH":"2022-05-24T22:00:00.999936","EPHEMERIS_TYPE":"0","ARG_OF_PERICENTER":"281.1298","MEAN_MOTION_DOT":"-0.00668623","FILE":"3462783","REF_FRAME":"TEME"},{"TIME_SYSTEM":"UTC","BSTAR":"0.00022364000000","SEMIMAJOR_AXIS":"6955.194","CENTER_NAME":"EARTH","MEAN_ANOMALY":"39.6800","COUNTRY_CODE":"US","SITE":"AFWTR","REF_FRAME":"TEME","MEAN_MOTION_DOT":"0.00002469","ARG_OF_PERICENTER":"266.7347","FILE":"3462783","PERIAPSIS":"575.080","EPHEMERIS_TYPE":"0","OBJECT_ID":"2021-082BC","EPOCH":"2022-05-24T22:00:00.999936","REV_AT_EPOCH":"130","ECCENTRICITY":"0.00028460","MEAN_MOTION_DDOT":"0.0000000000000","RA_OF_ASC_NODE":"165.3615","GP_ID":"204456151","MEAN_MOTION":"14.96714152","TLE_LINE1":"1 49180U 21082BC  22144.91667824  .00002469  00000-0  22364-3 0  9992","LAUNCH_DATE":"2021-09-14","OBJECT_TYPE":"PAYLOAD","TLE_LINE2":"2 49180  70.0001 165.3615 0002846 266.7347  39.6800 14.96714152  1304","DECAY_DATE":null,"INCLINATION":"70.0001","RCS_SIZE":"LARGE","MEAN_ELEMENT_THEORY":"SGP4","PERIOD":"96.211","ELEMENT_SET_NO":"999","OBJECT_NAME":"STARLINK-3050","APOAPSIS":"579.039","NORAD_CAT_ID":"49180","CLASSIFICATION_TYPE":"U"},{"CLASSIFICATION_TYPE":"U","NORAD_CAT_ID":"49181","APOAPSIS":"574.432","OBJECT_NAME":"STARLINK-3059","ELEMENT_SET_NO":"999","RCS_SIZE":"LARGE","PERIOD":"96.110","MEAN_ELEMENT_THEORY":"SGP4","INCLINATION":"70.0010","DECAY_DATE":null,"TLE_LINE2":"2 49181  70.0010 185.9589 0003225 275.4840   2.5271 14.98287252  1309","LAUNCH_DATE":"2021-09-14","OBJECT_TYPE":"PAYLOAD","MEAN_MOTION":"14.98287252","TLE_LINE1":"1 49181U 21082BD  22144.91667824  .00051533  00000-0  42997-2 0  9992","RA_OF_ASC_NODE":"185.9589","GP_ID":"204456401","ECCENTRICITY":"0.00032250","MEAN_MOTION_DDOT":"0.0000000000000","REV_AT_EPOCH":"130","EPHEMERIS_TYPE":"0","EPOCH":"2022-05-24T22:00:00.999936","OBJECT_ID":"2021-082BD","PERIAPSIS":"569.949","FILE":"3462783","ARG_OF_PERICENTER":"275.4840","MEAN_MOTION_DOT":"0.00051533","REF_FRAME":"TEME","SITE":"AFWTR","COUNTRY_CODE":"US","CENTER_NAME":"EARTH","MEAN_ANOMALY":"2.5271","SEMIMAJOR_AXIS":"6950.325","BSTAR":"0.00429970000000","TIME_SYSTEM":"UTC"},{"ELEMENT_SET_NO":"999","OBJECT_NAME":"STARLINK-3151","INCLINATION":"53.2155","DECAY_DATE":null,"PERIOD":"95.438","MEAN_ELEMENT_THEORY":"SGP4","RCS_SIZE":"LARGE","CLASSIFICATION_TYPE":"U","APOAPSIS":"541.258","NORAD_CAT_ID":"49408","GP_ID":"204456426","RA_OF_ASC_NODE":"325.6213","TLE_LINE1":"1 49408U 21104A   22144.91667824  .00012267  00000-0  78779-3 0  9998","MEAN_MOTION":"15.08825292","OBJECT_TYPE":"PAYLOAD","LAUNCH_DATE":"2021-11-13","TLE_LINE2":"2 49408  53.2155 325.6213 0002121  36.0662  71.1368 15.08825292  1301","MEAN_MOTION_DOT":"0.00012267","ARG_OF_PERICENTER":"36.0662","FILE":"3462783","REF_FRAME":"TEME","REV_AT_EPOCH":"130","MEAN_MOTION_DDOT":"0.0000000000000","ECCENTRICITY":"0.00021210","PERIAPSIS":"538.323","EPOCH":"2022-05-24T22:00:00.999936","OBJECT_ID":"2021-104A","EPHEMERIS_TYPE":"0","SEMIMAJOR_AXIS":"6917.925","MEAN_ANOMALY":"71.1368","CENTER_NAME":"EARTH","TIME_SYSTEM":"UTC","BSTAR":"0.00078779000000","COUNTRY_CODE":"US","SITE":"AFETR"}];
